1 56292U 23056G   23259.69828242  .00022833  00000-0  16985-2 0  9991
2 56292  43.0020  87.4008 0001856 282.8648  77.1987 15.02564846 23296
1 56293U 23056H   23259.57487444  .00005578  00000-0  43673-3 0  9996
2 56293  42.9961  88.1905 0000432 331.0410  29.0407 15.01730980 23270
1 56294U 23056J   23259.58334491  .00004988  00000-0  38398-3 0  9993
2 56294  43.0006  88.6905 0001603 257.8563 253.3828 15.02546424  5800
1 56295U 23056K   23259.48280060  .00002955  00000-0  23370-3 0  9991
2 56295  42.9984  63.0608 0001427 287.6017  72.4670 15.02541728 24156
1 56296U 23056L   23259.68249013  .00001963  00000-0  16040-3 0  9991
2 56296  43.0031  48.9439 0001568 269.2309  90.8354 15.02526940 23737
1 56297U 23056M   23259.58334491  .00006400  00000-0  48831-3 0  9990
2 56297  43.0013  88.4256 0001269 252.3177   7.1027 15.02540843  5802
1 56298U 23056N   23259.54210901  .00002425  00000-0  19455-3 0  9999
2 56298  43.0000  88.7354 0001020 273.8206  86.2519 15.02531307 23929
1 56299U 23056P   23259.77509895  .00005949  00000-0  45493-3 0  9993
2 56299  43.0015  74.9106 0001477 277.4883  82.5791 15.02550062 23442
1 56300U 23056Q   23259.22961104  .00002666  00000-0  21247-3 0  9995
2 56300  43.0028  89.9144 0002111 271.5405  88.5196 15.02523201 23886
1 56301U 23056R   23259.57153893  .00001988  00000-0  16562-3 0  9992
2 56301  43.0018  88.1661 0002124 276.7853  83.2748 15.01724499 23289
1 56302U 23056S   23259.58334491  .00012452  00000-0  93518-3 0  9993
2 56302  43.0012  88.2125 0000899 272.5566  77.0139 15.02536362  5806
1 56303U 23056T   23259.62123206  .00021435  00000-0  11706-2 0  9998
2 56303  42.9986  81.6921 0009577 281.7496  78.2276 15.13907086 23354
1 56304U 23056U   23259.37807968  .00010047  00000-0  77382-3 0  9995
2 56304  43.0000  89.2233 0001617 279.5177  80.5482 15.01736788 23904
1 56305U 23056V   23259.68316562  .00010229  00000-0  78781-3 0  9991
2 56305  43.0024  86.3571 0001476 272.9004  87.1669 15.01724566 23308
1 56306U 23056W   23259.72156694  .00008163  00000-0  61847-3 0  9994
2 56306  43.0020  87.5006 0001809 266.0149  94.0487 15.02545544 23296
1 56317U 23058A   23259.53787657  .00000224  00000-0  22021-4 0  9998
2 56317  97.6539 259.2432 0004748  58.1707 301.9979 15.01256161 21976
1 56318U 23058B   23259.53416965  .00000821  00000-0  68510-4 0  9996
2 56318  97.6537 259.2468 0003789  44.3230 315.8297 15.01257119 21977
1 56319U 23058C   23259.53231878  .00000757  00000-0  63540-4 0  9991
2 56319  97.6538 259.2489 0004350  40.9618 319.1932 15.01256681 21975
1 56320U 23058D   23259.52861220  .00000552  00000-0  47547-4 0  9994
2 56320  97.6540 259.2499 0002125  92.6529 267.4939 15.01257229 21986
1 56321U 23058E   23259.72625310 -.00633488  00000-0 -55147-1 0  9999
2 56321  97.6545 259.4519 0003328  46.1205 314.0293 14.99437564 21854
1 56322U 23058F   23259.60267410  .00000596  00000-0  51015-4 0  9999
2 56322  97.6538 259.3107 0004486  51.1348 309.0276 15.01256515 21842
1 56323U 23058G   23259.83334491  .00015558  00000-0  12134-2 0  9990
2 56323  97.6533 259.5575 0002792  53.2581 161.4860 15.01251925 21871
1 56324U 23058H   23259.73042128  .00001362  00000-0  11063-3 0  9992
2 56324  97.6535 259.4478 0003652  41.5095 318.6406 15.01260330 21862
1 56325U 23058J   23259.52120287  .00000566  00000-0  48631-4 0  9990
2 56325  97.6529 259.2550 0001745  64.9559 295.1846 15.01257252 22328
1 56326U 23058K   23259.53070981  .00000762  00000-0  63883-4 0  9991
2 56326  97.6542 259.2464 0002500  90.2458 269.9052 15.01257244 21977
1 56327U 23058L   23259.58415167  .00000351  00000-0  31950-4 0  9990
2 56327  97.6537 259.3214 0001508  90.7205 269.4192 15.01257527 22333
1 56328U 23058M   23259.72301351  .00000378  00000-0  34011-4 0  9996
2 56328  97.6527 259.4531 0001969  51.8159 308.3243 15.01255785 21864
1 56329U 23058N   23259.58600377  .00000100  00000-0  12341-4 0  9996
2 56329  97.6535 259.3202 0002020  86.4864 273.6592 15.01258159 22336
1 56330U 23058P   23259.72326258  .00001256  00000-0  10233-3 0  9997
2 56330  97.6534 259.4518 0001613  99.8699 260.2707 15.01267883 21860
1 56331U 23058Q   23259.58044573  .00000210  00000-0  20934-4 0  9998
2 56331  97.6538 259.3252 0000947 150.7538 209.3739 15.01257257 22333
1 56332U 23058R   23259.52490860  .00000175  00000-0  18235-4 0  9998
2 56332  97.6537 259.2477 0001809  95.2577 264.8854 15.01256120 22326
1 56333U 23058S   23259.57859448  .00000240  00000-0  23273-4 0  9996
2 56333  97.6540 259.3272 0001594 157.4190 202.7104 15.01255938 22334
1 56334U 23058T   23259.58229853  .00000395  00000-0  35326-4 0  9992
2 56334  97.6537 259.3231 0001064  96.4123 263.7222 15.01258129 22339
1 56335U 23058U   23259.57328430  .00000832  00000-0  69384-4 0  9990
2 56335  97.6542 259.3339 0002417 151.7059 208.4297 15.01258358 22333
1 56336U 23058V   23259.58069140  .00000440  00000-0  38858-4 0  9999
2 56336  97.6537 259.3249 0001311 143.3943 216.7371 15.01256936 22334
1 56337U 23058W   23259.57303958  .00001055  00000-0  86734-4 0  9996
2 56337  97.6544 259.3340 0002413 150.4740 209.6621 15.01258187 22332
1 56338U 23058X   23259.57674341  .00000316  00000-0  29202-4 0  9990
2 56338  97.6540 259.3294 0001795 160.1512 199.9782 15.01255692 22331
1 56339U 23058Y   23259.56933699  .00001822  00000-0  14644-3 0  9990
2 56339  97.6547 259.3395 0002194 139.4382 220.7006 15.01257892 22335
1 56340U 23058Z   23259.57489253  .00000583  00000-0  50021-4 0  9998
2 56340  97.6541 259.3318 0001959 149.9350 210.1987 15.01256652 22339
1 56341U 23058AA  23259.56587870  .00000583  00000-0  50015-4 0  9995
2 56341  97.6548 259.3458 0002373 115.4606 244.6864 15.01259079 22337
1 56342U 23058AB  23259.57118846  .00000859  00000-0  71465-4 0  9998
2 56342  97.6545 259.3365 0002377 145.2638 214.8741 15.01258301 22332
1 56343U 23058AC  23259.56378211  .00000752  00000-0  63109-4 0  9990
2 56343  97.6565 259.3509 0002143 115.2837 244.8609 15.01259056 22338
1 56344U 23058AD  23259.50083386  .00000397  00000-0  35510-4 0  9991
2 56344  97.6546 259.2767 0002334 120.7516 239.3938 15.01258509 22325
1 56345U 23058AE  23259.62697612  .00000930  00000-0  77007-4 0  9998
2 56345  97.6571 259.4271 0002125  86.4672 273.6795 15.01258124 21857
1 56346U 23058AF  23259.56563405  .00000846  00000-0  70492-4 0  9991
2 56346  97.6551 259.3462 0002111 119.2315 240.9120 15.01258254 22338
1 56347U 23058AG  23259.62673074  .00001114  00000-0  91287-4 0  9997
2 56347  97.6572 259.4276 0002092  86.3677 273.7787 15.01258239 21851
1 56348U 23058AH  23259.56193122  .00001210  00000-0  98824-4 0  9993
2 56348  97.6578 259.3568 0001618  95.6132 264.5277 15.01257756 22332
1 56349U 23058AJ  23259.75289376 -.00002044  00000-0 -15472-3 0  9997
2 56349  97.6564 259.5750 0001876  92.8287 267.3152 15.01234642 21879
1 56350U 23058AK  23259.55637379  .00000795  00000-0  66506-4 0  9991
2 56350  97.6564 259.3710 0001768  90.3325 269.8102 15.01259083 22331
1 56351U 23058AL  23259.55267241  .00001153  00000-0  94358-4 0  9994
2 56351  97.6558 259.3780 0002182  91.8866 268.2608 15.01257033 22336
1 56352U 23058AM  23259.55822642  .00000809  00000-0  67570-4 0  9990
2 56352  97.6569 259.3665 0001713  92.5045 267.6375 15.01258404 22334
1 56353U 23058AN  23259.53971343  .00000395  00000-0  35329-4 0  9999
2 56353  97.6541 259.3976 0004646  63.0953 297.0746 15.01256019 22338
1 56354U 23058AP  23259.55452203  .00001620  00000-0  13071-3 0  9992
2 56354  97.6558 259.3748 0001947  90.3426 269.8022 15.01259396 21843
1 56355U 23058AQ  23259.74707413  .00000870  00000-0  72310-4 0  9998
2 56355  97.6553 259.5850 0003087  83.6348 276.5228 15.01258335 21878
1 56356U 23058AR  23259.74893442  .00000050  00000-0  84635-5 0  9991
2 56356  97.6555 259.5823 0002831  85.3282 274.8265 15.01250801 21875
1 56357U 23058AS  23259.74731891  .00000969  00000-0  80060-4 0  9997
2 56357  97.6554 259.5846 0003090  83.6035 276.5541 15.01258383 21874
1 56358U 23058AT  23259.75077738  .00001108  00000-0  90835-4 0  9999
2 56358  97.6557 259.5790 0002460  88.8137 271.3369 15.01257982 21871
1 56359U 23058AU  23259.74337206  .00000543  00000-0  46864-4 0  9993
2 56359  97.6549 259.5906 0003863  68.7245 291.4392 15.01257666 21875
1 56360U 23058AV  23259.74522230  .00000529  00000-0  45765-4 0  9991
2 56360  97.6550 259.5878 0003442  80.1982 279.9631 15.01259237 21879
1 56361U 23058AW  23259.53996884  .00001309  00000-0  10648-3 0  9997
2 56361  97.6539 259.3976 0004698  62.8377 297.3326 15.01251661 22333
1 56362U 23058AX  23259.54156380  .00000457  00000-0  40207-4 0  9996
2 56362  97.6545 259.3954 0004199  69.6287 290.5388 15.01257533 22335
1 56374U 23061A   23259.66981777 -.00000826  00000-0 -46076-4 0  9994
2 56374  43.0027  75.3036 0000686 287.1792  72.8975 15.02537216 20937
1 56375U 23061B   23259.66427220  .00003007  00000-0  23757-3 0  9995
2 56375  43.0041  75.2605 0001443 283.8980  76.1702 15.02535634 20903
1 56376U 23061C   23259.53464476  .00001916  00000-0  15693-3 0  9993
2 56376  43.0039  76.0091 0001279 288.5025  71.5679 15.02528421 20883
1 56377U 23061D   23259.72742361  .00003006  00000-0  23753-3 0  9995
2 56377  43.0035  74.8743 0001000 279.5626  80.5103 15.02534498 20916
1 56378U 23061E   23259.51688595  .00000600  00000-0  59490-4 0  9996
2 56378  43.0036  75.8733 0001177 256.7720 103.2991 15.02526407 20598
1 56379U 23061F   23259.52576581  .00002179  00000-0  17636-3 0  9997
2 56379  43.0041  75.9406 0001342 282.5605  77.5087 15.02527913 21690
1 56380U 23061G   23259.58669448  .00001754  00000-0  14488-3 0  9990
2 56380  43.0038  75.5375 0001201 286.9305  73.1406 15.02527195 20898
1 56381U 23061H   23259.19004463  .00002454  00000-0  19664-3 0  9997
2 56381  43.0020  77.7214 0001203 264.3278  95.7427 15.02537736 20544
1 56382U 23061J   23259.77724649  .00004486  00000-0  34687-3 0  9996
2 56382  43.0033  74.3847 0001370 279.7822  80.2866 15.02540798 20924
1 56383U 23061K   23259.38060034  .00000591  00000-0  58815-4 0  9998
2 56383  43.0032  76.5711 0001012 260.3289  99.7439 15.02527911 20578
